OBJECT_NAME,OBJECT_ID,EPOCH,MEAN_MOTION,ECCENTRICITY,INCLINATION,RA_OF_ASC_NODE,ARG_OF_PERICENTER,MEAN_ANOMALY,EPHEMERIS_TYPE,CLASSIFICATION_TYPE,NORAD_CAT_ID,ELEMENT_SET_NO,REV_AT_EPOCH,BSTAR,MEAN_MOTION_DOT,MEAN_MOTION_DDOT
INTELSAT 21 (IS-21),2012-045A,2026-06-19T01:43:17.198976,1.00272683,.00013932,0.0182,12.4024,86.2934,136.4237,0,U,38749,999,5054,0,-.291E-5,0
INTELSAT 23 (IS-23),2012-057A,2026-06-19T05:29:59.907840,1.00267375,.00001343,0.0099,325.5761,86.5042,244.8525,0,U,38867,999,4997,0,-.291E-5,0
FM-6,2013-058A,2026-06-19T11:34:38.788896,1.00269661,.00017534,0.0352,51.0857,125.6798,148.3058,0,U,39360,999,4609,0,0,0
INTELSAT 30 (IS-30),2014-062A,2026-06-19T05:50:50.775072,1.00270952,.00012405,0.0281,53.7801,330.6226,235.7245,0,U,40271,999,681,0,-.157E-5,0
DIRECTV 14,2014-078B,2026-06-19T12:37:10.014240,1.00270357,.00003274,0.0093,19.6463,295.3294,42.8268,0,U,40333,999,4206,0,-.131E-5,0
DIRECTV 15,2015-026A,2026-06-19T12:23:17.550240,1.00273480,.00002455,0.0137,53.7895,328.8611,328.0248,0,U,40663,999,4048,0,-.109E-5,0
SKY MEXICO-1,2015-026B,2026-06-19T12:30:09.392256,1.00272301,.00021047,0.0158,54.5474,50.5186,271.4138,0,U,40664,999,4047,0,-.24E-5,0
INTELSAT 34 (IS-34),2015-039A,2026-06-19T09:11:22.202304,1.00288278,.0000705,0.0094,7.4220,83.2055,259.3358,0,U,40874,999,3965,0,-.292E-5,0
INTELSAT 31 (IS-31),2016-035A,2026-06-19T02:09:30.712320,1.00264216,.00011277,0.0171,269.3791,318.6423,336.6183,0,U,41581,999,3670,0,-.156E-5,0
INTELSAT 36 (IS-36),2016-053A,2026-06-18T23:56:21.800256,1.00271257,.00021211,0.0124,11.1204,322.4188,1.2761,0,U,41747,999,3597,0,-.31E-6,0
INTELSAT 32E (IS-32E),2017-007B,2026-06-19T04:06:58.326624,1.00270576,.00006553,0.0180,10.1464,310.2644,325.5432,0,U,41945,999,3424,0,-.275E-5,0
INTELSAT 35E (IS-35E),2017-041A,2026-06-19T04:09:28.088064,1.00270762,.00020387,0.0194,13.3558,75.0828,206.8380,0,U,42818,999,3283,0,0,0
INTELSAT 37E (IS-37E),2017-059A,2026-06-19T09:22:06.172608,1.00271073,.0002559,0.0180,15.8663,97.1818,277.1016,0,U,42950,999,3208,0,-.147E-5,0
AZERSPACE 2 (IS-38),2018-074A,2026-06-18T21:41:31.668000,1.00273868,.0001499,0.0173,14.6973,84.9449,177.9809,0,U,43632,999,2846,0,.13E-5,0
HORIZONS-3E,2018-074B,2026-06-18T15:26:12.274368,1.00271097,.00007576,0.0047,132.2714,140.4157,34.7443,0,U,43633,999,2835,0,-.37E-6,0
AT&T T-16,2019-034A,2026-06-18T20:59:35.484000,1.00271203,.000081,0.0226,66.9403,239.0528,175.1501,0,U,44333,999,2565,0,-.122E-5,0
INTELSAT 39 (IS-39),2019-049B,2026-06-19T13:10:13.050624,1.00270262,.00009757,0.0006,355.2860,338.9576,193.0266,0,U,44476,999,2515,0,.28E-6,0
GALAXY 30 (G-30),2020-056C,2026-06-19T12:16:55.659648,1.00272740,.00022362,0.0177,4.8227,83.1357,239.0036,0,U,46114,999,2131,0,.31E-6,0
GALAXY 33 (G-33),2022-128A,2026-06-19T13:00:02.408256,1.00270256,.00017031,0.0196,49.2747,35.1210,245.3737,0,U,54026,999,1376,0,.73E-6,0
GALAXY 34 (G-34),2022-128B,2026-06-18T15:26:01.500288,1.00274211,.0001513,0.0104,30.3042,67.6466,271.4326,0,U,54027,999,1392,0,.52E-6,0
GALAXY 31 (G-31),2022-153A,2026-06-19T11:34:38.788896,1.00271861,.00011346,0.0221,84.1069,356.0720,240.1743,0,U,54243,999,715,0,.7E-7,0
GALAXY 32 (G-32),2022-153B,2026-06-19T12:26:39.727104,1.00271630,.00020695,0.0139,28.6200,7.7601,327.0277,0,U,54244,999,1316,0,-.18E-5,0
GALAXY 35 (G-35),2022-170A,2026-06-19T12:26:02.287392,1.00271924,.00018476,0.0133,66.3445,18.4425,276.3511,0,U,54741,999,1291,0,-.168E-5,0
GALAXY 36 (G-36),2022-170B,2026-06-19T12:27:09.679392,1.00272164,.00025384,0.0040,322.4331,121.0454,282.0519,0,U,54742,999,1279,0,-.191E-5,0
GALAXY 37 (G-37),2023-112A,2026-06-19T12:27:39.191040,1.00271199,.00019805,0.0013,351.1399,95.5303,240.9805,0,U,57493,999,1056,0,.42E-6,0
