INTELSAT 21 (IS-21)     
1 38749U 12045A   26170.07172684 -.00000291  00000+0  00000+0 0  9995
2 38749   0.0182  12.4024 0001393  86.2934 136.4237  1.00272683 50544
INTELSAT 23 (IS-23)     
1 38867U 12057A   26170.22916560 -.00000291  00000+0  00000+0 0  9995
2 38867   0.0099 325.5761 0000134  86.5042 244.8525  1.00267375 49974
FM-6                    
1 39360U 13058A   26170.48239339  .00000000  00000+0  00000+0 0  9993
2 39360   0.0352  51.0857 0001753 125.6798 148.3058  1.00269661 46092
INTELSAT 30 (IS-30)     
1 40271U 14062A   26170.24364323 -.00000157  00000+0  00000+0 0  9992
2 40271   0.0281  53.7801 0001240 330.6226 235.7245  1.00270952  6819
DIRECTV 14              
1 40333U 14078B   26170.52581035 -.00000131  00000+0  00000+0 0  9992
2 40333   0.0093  19.6463 0000327 295.3294  42.8268  1.00270357 42069
DIRECTV 15              
1 40663U 15026A   26170.51617535 -.00000109  00000+0  00000+0 0  9991
2 40663   0.0137  53.7895 0000245 328.8611 328.0248  1.00273480 40487
SKY MEXICO-1            
1 40664U 15026B   26170.52094204 -.00000240  00000+0  00000+0 0  9991
2 40664   0.0158  54.5474 0002104  50.5186 271.4138  1.00272301 40474
INTELSAT 34 (IS-34)     
1 40874U 15039A   26170.38289586 -.00000292  00000+0  00000+0 0  9998
2 40874   0.0094   7.4220 0000705  83.2055 259.3358  1.00288278 39652
INTELSAT 31 (IS-31)     
1 41581U 16035A   26170.08993880 -.00000156  00000+0  00000+0 0  9996
2 41581   0.0171 269.3791 0001127 318.6423 336.6183  1.00264216 36703
INTELSAT 36 (IS-36)     
1 41747U 16053A   26169.99747454 -.00000031  00000+0  00000+0 0  9994
2 41747   0.0124  11.1204 0002121 322.4188   1.2761  1.00271257 35971
INTELSAT 32E (IS-32E)   
1 41945U 17007B   26170.17150841 -.00000275  00000+0  00000+0 0  9994
2 41945   0.0180  10.1464 0000655 310.2644 325.5432  1.00270576 34241
INTELSAT 35E (IS-35E)   
1 42818U 17041A   26170.17324176  .00000000  00000+0  00000+0 0  9991
2 42818   0.0194  13.3558 0002038  75.0828 206.8380  1.00270762 32835
INTELSAT 37E (IS-37E)   
1 42950U 17059A   26170.39034922 -.00000147  00000+0  00000+0 0  9991
2 42950   0.0180  15.8663 0002559  97.1818 277.1016  1.00271073 32083
AZERSPACE 2 (IS-38)     
1 43632U 18074A   26169.90383875  .00000130  00000+0  00000+0 0  9997
2 43632   0.0173  14.6973 0001499  84.9449 177.9809  1.00273868 28468
HORIZONS-3E             
1 43633U 18074B   26169.64319762 -.00000037  00000+0  00000+0 0  9990
2 43633   0.0047 132.2714 0000757 140.4157  34.7443  1.00271097 28353
AT&T T-16               
1 44333U 19034A   26169.87471625 -.00000122  00000+0  00000+0 0  9992
2 44333   0.0226  66.9403 0000810 239.0528 175.1501  1.00271203 25659
INTELSAT 39 (IS-39)     
1 44476U 19049B   26170.54876216  .00000028  00000+0  00000+0 0  9991
2 44476   0.0006 355.2860 0000975 338.9576 193.0266  1.00270262 25154
GALAXY 30 (G-30)        
1 46114U 20056C   26170.51175532  .00000031  00000+0  00000+0 0  9996
2 46114   0.0177   4.8227 0002236  83.1357 239.0036  1.00272740 21319
GALAXY 33 (G-33)        
1 54026U 22128A   26170.54169454  .00000073  00000+0  00000+0 0  9994
2 54026   0.0196  49.2747 0001703  35.1210 245.3737  1.00270256 13762
GALAXY 34 (G-34)        
1 54027U 22128B   26169.64307292  .00000052  00000+0  00000+0 0  9995
2 54027   0.0104  30.3042 0001513  67.6466 271.4326  1.00274211 13920
GALAXY 31 (G-31)        
1 54243U 22153A   26170.48239339  .00000007  00000+0  00000+0 0  9993
2 54243   0.0221  84.1069 0001134 356.0720 240.1743  1.00271861  7155
GALAXY 32 (G-32)        
1 54244U 22153B   26170.51851536 -.00000180  00000+0  00000+0 0  9990
2 54244   0.0139  28.6200 0002069   7.7601 327.0277  1.00271630 13169
GALAXY 35 (G-35)        
1 54741U 22170A   26170.51808203 -.00000168  00000+0  00000+0 0  9990
2 54741   0.0133  66.3445 0001847  18.4425 276.3511  1.00271924 12916
GALAXY 36 (G-36)        
1 54742U 22170B   26170.51886203 -.00000191  00000+0  00000+0 0  9993
2 54742   0.0040 322.4331 0002538 121.0454 282.0519  1.00272164 12790
GALAXY 37 (G-37)        
1 57493U 23112A   26170.51920360  .00000042  00000+0  00000+0 0  9993
2 57493   0.0013 351.1399 0001980  95.5303 240.9805  1.00271199 10568
